COSMOS 2361             
1 25590U 98076A   24350.83577278  .00000097  00000+0  88479-4 0  9997
2 25590  82.9344 251.6629 0031052 189.7186 216.2442 13.73164603301442
COSMOS 2378             
1 26818U 01023A   24349.75080042  .00000095  00000+0  84369-4 0  9996
2 26818  82.9271 268.7947 0033842 135.9276 253.3530 13.74092783179385
COSMOS 2389             
1 27436U 02026A   24349.76080073  .00000102  00000+0  90081-4 0  9999
2 27436  82.9509 215.6259 0046373 354.5494  48.8926 13.75106103131609
COSMOS 2398             
1 27818U 03023A   24351.09843326  .00000090  00000+0  82000-4 0  9996
2 27818  82.9478 179.1974 0032131  39.1504  95.0232 13.72338234 78547
COSMOS 2407             
1 28380U 04028A   24350.61041578  .00000095  00000+0  81444-4 0  9999
2 28380  82.9601 121.0870 0038833 348.5544  22.0211 13.76258901 24619
COSMOS 2414             
1 28521U 05002A   24350.83644351  .00000123  00000+0  89210-4 0  9992
2 28521  82.9498  98.3811 0041524  93.1472 267.4444 13.87836692  7755
COSMOS 2429             
1 32052U 07038A   24350.80384739  .00000090  00000+0  78021-4 0  9996
2 32052  82.9808 250.0351 0037821 328.8176  31.0736 13.75097559866282
COSMOS 2454             
1 35635U 09039A   24350.79578766  .00000123  00000+0  86986-4 0  9998
2 35635  82.9566  83.0606 0019815  32.1682  59.3866 13.89864267781220
COSMOS 2463             
1 36519U 10017A   24351.13269706  .00000083  00000+0  75261-4 0  9997
2 36519  82.9601 292.3752 0035348 209.0093 161.7453 13.71601880732899
